[{"OBJECT_NAME":"TIANQI-30","OBJECT_ID":"2024-170B","EPOCH":"2026-03-09T21:12:35.925696","MEAN_MOTION":13.99108215,"ECCENTRICITY":0.00073562,"INCLINATION":44.8573,"RA_OF_ASC_NODE":219.7467,"ARG_OF_PERICENTER":348.864,"MEAN_ANOMALY":11.2027,"EPHEMERIS_TYPE":0,"CLASSIFICATION_TYPE":"U","NORAD_CAT_ID":61196,"ELEMENT_SET_NO":999,"REV_AT_EPOCH":7514,"BSTAR":0.00015101547,"MEAN_MOTION_DOT":9.2e-7,"MEAN_MOTION_DDOT":0},{"OBJECT_NAME":"FENGYUN 1C DEB","OBJECT_ID":"1999-025GN","EPOCH":"2026-03-09T21:54:23.365152","MEAN_MOTION":14.34722815,"ECCENTRICITY":0.01832197,"INCLINATION":99.1808,"RA_OF_ASC_NODE":226.7754,"ARG_OF_PERICENTER":45.5321,"MEAN_ANOMALY":106.0499,"EPHEMERIS_TYPE":0,"CLASSIFICATION_TYPE":"U","NORAD_CAT_ID":29892,"ELEMENT_SET_NO":999,"REV_AT_EPOCH":97898,"BSTAR":0.0022112529,"MEAN_MOTION_DOT":7.523e-5,"MEAN_MOTION_DDOT":0}]
